OBJECT_NAME,OBJECT_ID,EPOCH,MEAN_MOTION,ECCENTRICITY,INCLINATION,RA_OF_ASC_NODE,ARG_OF_PERICENTER,MEAN_ANOMALY,EPHEMERIS_TYPE,CLASSIFICATION_TYPE,NORAD_CAT_ID,ELEMENT_SET_NO,REV_AT_EPOCH,BSTAR,MEAN_MOTION_DOT,MEAN_MOTION_DDOT
STARLINK-30783,2023-162N,2026-06-28T13:44:08.371104,15.27572488,.00011298,43.0024,223.0083,293.1354,66.9379,0,U,58130,999,14930,-.17660087E-4,-.748E-5,0
STARLINK-30757,2023-162P,2026-06-28T12:04:25.481280,15.27576737,.000174,43.0005,223.3518,281.5729,78.4927,0,U,58131,999,14929,.64608426E-4,.1516E-4,0
STARLINK-30770,2023-162Q,2026-06-28T13:37:51.944448,15.27577852,.00010795,42.9998,226.3636,280.6353,79.4377,0,U,58132,999,14925,.46373246E-4,.1014E-4,0
STARLINK-30758,2023-162R,2026-06-28T13:45:59.162688,15.27576263,.00020663,43.0066,223.0156,265.8028,94.2588,0,U,58133,999,14930,.83422726E-4,.2034E-4,0
STARLINK-30761,2023-162S,2026-06-28T12:09:15.686784,15.27577942,.00012022,43.0017,226.7644,271.2309,88.8405,0,U,58134,999,14925,.38988252E-4,.811E-5,0
STARLINK-30772,2023-162T,2026-06-28T11:47:04.131456,15.27572131,.00014251,43.0004,226.6565,269.4549,90.6140,0,U,58135,999,14925,.72491549E-4,.1733E-4,0
STARLINK-30776,2023-162U,2026-06-28T13:28:08.889600,15.43428349,.00142563,42.9923,219.3324,63.0571,297.1742,0,U,58136,999,14934,.17951563E-2,.83032E-3,0
STARLINK-30782,2023-162V,2026-06-28T13:47:07.900800,15.27573290,.0001217,43.0024,226.4235,275.8546,84.2167,0,U,58137,999,14926,.49527048E-4,.1101E-4,0
STARLINK-30769,2023-162W,2026-06-28T12:57:10.048032,15.27575652,.00015284,43.0017,226.1636,267.6758,92.3919,0,U,58138,999,14926,.87341465E-4,.2142E-4,0
STARLINK-30775,2023-162X,2026-06-28T14:25:46.005024,15.27581449,.00014335,43.0016,225.7718,283.2647,76.8045,0,U,58139,999,14927,.84388693E-4,.2061E-4,0
STARLINK-30780,2023-162Y,2026-06-28T09:58:06.461184,15.27572809,.00013726,43.0016,226.9470,270.1303,89.9392,0,U,58140,999,14924,.43705287E-4,.94E-5,0
STARLINK-30802,2023-166A,2026-06-28T21:58:40.449216,15.31682197,.00015637,53.1621,62.6045,83.4007,276.7173,0,U,58150,999,15021,.14410785E-3,.4107E-4,0
STARLINK-30834,2023-166B,2026-06-28T22:00:30.528000,15.30201140,.00011299,53.1581,63.1118,108.4870,251.6254,0,U,58151,999,15020,.38649079E-3,.11105E-3,0
STARLINK-30833,2023-166C,2026-06-28T16:16:25.493376,15.31691628,.00015419,53.1619,63.9649,82.6822,277.4354,0,U,58152,999,15017,.41224546E-4,.914E-5,0
STARLINK-30831,2023-166D,2026-06-28T22:18:49.713120,15.31689303,.0001329,53.1608,62.7086,83.9812,276.1341,0,U,58153,999,15021,.10784125E-3,.2982E-4,0
STARLINK-30797,2023-166E,2026-06-28T22:05:04.535232,15.30178667,.00014426,53.1607,63.1246,89.4658,270.6508,0,U,58154,999,15005,.62492536E-4,.1491E-4,0
STARLINK-30804,2023-166F,2026-06-28T20:31:25.519008,15.31687138,.00010206,53.1592,62.9496,99.9686,260.1431,0,U,58155,999,15020,.87378147E-4,.2346E-4,0
STARLINK-30784,2023-166G,2026-06-28T23:30:03.555648,15.30176451,.00008721,53.1593,63.0007,83.4243,276.6857,0,U,58156,999,15006,.19596775E-4,.221E-5,0
STARLINK-30803,2023-166H,2026-06-28T22:59:00.425184,15.31701427,.00012016,53.1600,62.1516,83.4044,276.7095,0,U,58157,999,15007,.11987854E-3,.3357E-4,0
STARLINK-30829,2023-166J,2026-06-28T15:56:16.181088,15.31684680,.00013214,53.1608,63.8894,85.3198,274.7954,0,U,58158,999,15017,.96069058E-4,.2616E-4,0
STARLINK-30788,2023-166K,2026-06-28T23:25:54.279552,15.31694851,.00012375,53.1601,62.2862,84.0520,276.0623,0,U,58159,999,15007,.93184941E-4,.2527E-4,0
STARLINK-30779,2023-166L,2026-06-28T23:19:10.705152,15.31693645,.00010532,53.1608,62.2584,89.3203,270.7919,0,U,58160,999,15022,.82476025E-4,.2195E-4,0
STARLINK-30773,2023-166M,2026-06-28T22:42:56.831040,15.30188885,.00011788,53.1604,62.7867,91.3921,268.7214,0,U,58161,999,15021,.67170639E-4,.163E-4,0
STARLINK-30816,2023-166N,2026-06-28T22:38:23.412192,15.30192772,.00014957,53.1601,62.7865,86.4597,273.6575,0,U,58162,999,15021,.25894286E-4,.407E-5,0
STARLINK-30763,2023-166P,2026-06-28T22:48:16.494624,15.30190038,.00011541,53.1603,50.2447,87.5183,272.5950,0,U,58163,999,15038,.55936872E-4,.1297E-4,0
STARLINK-30815,2023-166Q,2026-06-28T23:05:43.839744,15.31703102,.00011198,53.1610,62.2040,91.9002,268.2128,0,U,58164,999,15022,.98176223E-4,.2683E-4,0
STARLINK-30814,2023-166R,2026-06-28T22:09:30.794976,15.30205190,.00011952,53.1601,62.6664,87.3916,272.7222,0,U,58165,999,15021,.28092807E-3,.7971E-4,0
STARLINK-30789,2023-166S,2026-06-28T22:47:30.002784,15.30191086,.000146,53.1616,62.8305,91.3161,268.8007,0,U,58166,999,15021,.11394717E-3,.3016E-4,0
STARLINK-30811,2023-166T,2026-06-28T22:25:26.497344,15.31671138,.00009429,53.1598,62.0280,51.1563,308.9522,0,U,58167,999,15007,-.26456071E-4,-.1185E-4,0
STARLINK-30812,2023-166U,2026-06-28T22:14:04.618176,15.30208639,.00004352,53.1600,62.6862,96.8969,263.2082,0,U,58168,999,15006,-.2772771E-3,-.8563E-4,0
