[
  {
    "name": "STARLINK-30783",
    "noradId": "58130",
    "line1": "1 58130U 23162N   26179.57231911 -.00000748  00000+0 -17660-4 0  9999",
    "line2": "2 58130  43.0024 223.0083 0001129 293.1354  66.9379 15.27572488149306"
  },
  {
    "name": "STARLINK-30757",
    "noradId": "58131",
    "line1": "1 58131U 23162P   26179.50307270  .00001516  00000+0  64608-4 0  9991",
    "line2": "2 58131  43.0005 223.3518 0001740 281.5729  78.4927 15.27576737149294"
  },
  {
    "name": "STARLINK-30770",
    "noradId": "58132",
    "line1": "1 58132U 23162Q   26179.56796232  .00001014  00000+0  46373-4 0  9990",
    "line2": "2 58132  42.9998 226.3636 0001079 280.6353  79.4377 15.27577852149251"
  },
  {
    "name": "STARLINK-30758",
    "noradId": "58133",
    "line1": "1 58133U 23162R   26179.57360142  .00002034  00000+0  83423-4 0  9999",
    "line2": "2 58133  43.0066 223.0156 0002066 265.8028  94.2588 15.27576263149302"
  },
  {
    "name": "STARLINK-30761",
    "noradId": "58134",
    "line1": "1 58134U 23162S   26179.50643156  .00000811  00000+0  38988-4 0  9999",
    "line2": "2 58134  43.0017 226.7644 0001202 271.2309  88.8405 15.27577942149251"
  },
  {
    "name": "STARLINK-30772",
    "noradId": "58135",
    "line1": "1 58135U 23162T   26179.49102004  .00001733  00000+0  72492-4 0  9992",
    "line2": "2 58135  43.0004 226.6565 0001425 269.4549  90.6140 15.27572131149253"
  },
  {
    "name": "STARLINK-30776",
    "noradId": "58136",
    "line1": "1 58136U 23162U   26179.56121400  .00083032  00000+0  17952-2 0  9992",
    "line2": "2 58136  42.9923 219.3324 0014256  63.0571 297.1742 15.43428349149344"
  },
  {
    "name": "STARLINK-30782",
    "noradId": "58137",
    "line1": "1 58137U 23162V   26179.57439700  .00001101  00000+0  49527-4 0  9991",
    "line2": "2 58137  43.0024 226.4235 0001217 275.8546  84.2167 15.27573290149262"
  },
  {
    "name": "STARLINK-30769",
    "noradId": "58138",
    "line1": "1 58138U 23162W   26179.53969963  .00002142  00000+0  87341-4 0  9999",
    "line2": "2 58138  43.0017 226.1636 0001528 267.6758  92.3919 15.27575652149265"
  },
  {
    "name": "STARLINK-30775",
    "noradId": "58139",
    "line1": "1 58139U 23162X   26179.60122691  .00002061  00000+0  84389-4 0  9996",
    "line2": "2 58139  43.0016 225.7718 0001433 283.2647  76.8045 15.27581449149276"
  },
  {
    "name": "STARLINK-30780",
    "noradId": "58140",
    "line1": "1 58140U 23162Y   26179.41535256  .00000940  00000+0  43705-4 0  9993",
    "line2": "2 58140  43.0016 226.9470 0001372 270.1303  89.9392 15.27572809149249"
  },
  {
    "name": "STARLINK-30802",
    "noradId": "58150",
    "line1": "1 58150U 23166A   26179.91574594  .00004107  00000+0  14411-3 0  9991",
    "line2": "2 58150  53.1621  62.6045 0001563  83.4007 276.7173 15.31682197150214"
  },
  {
    "name": "STARLINK-30834",
    "noradId": "58151",
    "line1": "1 58151U 23166B   26179.91702000  .00011105  00000+0  38649-3 0  9992",
    "line2": "2 58151  53.1581  63.1118 0001129 108.4870 251.6254 15.30201140150206"
  },
  {
    "name": "STARLINK-30833",
    "noradId": "58152",
    "line1": "1 58152U 23166C   26179.67807284  .00000914  00000+0  41225-4 0  9997",
    "line2": "2 58152  53.1619  63.9649 0001541  82.6822 277.4354 15.31691628150172"
  },
  {
    "name": "STARLINK-30831",
    "noradId": "58153",
    "line1": "1 58153U 23166D   26179.92974205  .00002982  00000+0  10784-3 0  9996",
    "line2": "2 58153  53.1608  62.7086 0001329  83.9812 276.1341 15.31689303150214"
  },
  {
    "name": "STARLINK-30797",
    "noradId": "58154",
    "line1": "1 58154U 23166E   26179.92019138  .00001491  00000+0  62493-4 0  9991",
    "line2": "2 58154  53.1607  63.1246 0001442  89.4658 270.6508 15.30178667150053"
  },
  {
    "name": "STARLINK-30804",
    "noradId": "58155",
    "line1": "1 58155U 23166F   26179.85515647  .00002346  00000+0  87378-4 0  9999",
    "line2": "2 58155  53.1592  62.9496 0001020  99.9686 260.1431 15.31687138150205"
  },
  {
    "name": "STARLINK-30784",
    "noradId": "58156",
    "line1": "1 58156U 23166G   26179.97920782  .00000221  00000+0  19597-4 0  9991",
    "line2": "2 58156  53.1593  63.0007 0000872  83.4243 276.6857 15.30176451150066"
  },
  {
    "name": "STARLINK-30803",
    "noradId": "58157",
    "line1": "1 58157U 23166H   26179.95764381  .00003357  00000+0  11988-3 0  9999",
    "line2": "2 58157  53.1600  62.1516 0001201  83.4044 276.7095 15.31701427150071"
  },
  {
    "name": "STARLINK-30829",
    "noradId": "58158",
    "line1": "1 58158U 23166J   26179.66407617  .00002616  00000+0  96069-4 0  9995",
    "line2": "2 58158  53.1608  63.8894 0001321  85.3198 274.7954 15.31684680150175"
  },
  {
    "name": "STARLINK-30788",
    "noradId": "58159",
    "line1": "1 58159U 23166K   26179.97632268  .00002527  00000+0  93185-4 0  9999",
    "line2": "2 58159  53.1601  62.2862 0001237  84.0520 276.0623 15.31694851150076"
  },
  {
    "name": "STARLINK-30779",
    "noradId": "58160",
    "line1": "1 58160U 23166L   26179.97165168  .00002195  00000+0  82476-4 0  9993",
    "line2": "2 58160  53.1608  62.2584 0001053  89.3203 270.7919 15.31693645150224"
  },
  {
    "name": "STARLINK-30773",
    "noradId": "58161",
    "line1": "1 58161U 23166M   26179.94649110  .00001630  00000+0  67171-4 0  9993",
    "line2": "2 58161  53.1604  62.7867 0001178  91.3921 268.7214 15.30188885150216"
  },
  {
    "name": "STARLINK-30816",
    "noradId": "58162",
    "line1": "1 58162U 23166N   26179.94332653  .00000407  00000+0  25894-4 0  9992",
    "line2": "2 58162  53.1601  62.7865 0001495  86.4597 273.6575 15.30192772150213"
  },
  {
    "name": "STARLINK-30763",
    "noradId": "58163",
    "line1": "1 58163U 23166P   26179.95019091  .00001297  00000+0  55937-4 0  9991",
    "line2": "2 58163  53.1603  50.2447 0001154  87.5183 272.5950 15.30190038150385"
  },
  {
    "name": "STARLINK-30815",
    "noradId": "58164",
    "line1": "1 58164U 23166Q   26179.96231296  .00002683  00000+0  98176-4 0  9998",
    "line2": "2 58164  53.1610  62.2040 0001119  91.9002 268.2128 15.31703102150221"
  },
  {
    "name": "STARLINK-30814",
    "noradId": "58165",
    "line1": "1 58165U 23166R   26179.92327309  .00007971  00000+0  28093-3 0  9991",
    "line2": "2 58165  53.1601  62.6664 0001195  87.3916 272.7222 15.30205190150212"
  },
  {
    "name": "STARLINK-30789",
    "noradId": "58166",
    "line1": "1 58166U 23166S   26179.94965281  .00003016  00000+0  11395-3 0  9994",
    "line2": "2 58166  53.1616  62.8305 0001460  91.3161 268.8007 15.30191086150210"
  },
  {
    "name": "STARLINK-30811",
    "noradId": "58167",
    "line1": "1 58167U 23166T   26179.93433446 -.00001185  00000+0 -26456-4 0  9999",
    "line2": "2 58167  53.1598  62.0280 0000942  51.1563 308.9522 15.31671138150072"
  },
  {
    "name": "STARLINK-30812",
    "noradId": "58168",
    "line1": "1 58168U 23166U   26179.92644234 -.00008563  00000+0 -27728-3 0  9997",
    "line2": "2 58168  53.1600  62.6862 0000435  96.8969 263.2082 15.30208639150066"
  }
]